{"type": "FeatureCollection", "features": [ {"type": "Feature", "properties": {"norad_id": 34141, "name": "COSMOS 2251 DEB", "group": "cosmos-2251-debris", "lat": 11.585544782285828, "lon": 11.334088324144918, "alt_km": 721.8124466643194, "timestamp": "2025-12-23T20:42:37.469873+00:00", "meta": {"OBJECT_NAME": "COSMOS 2251 DEB", "OBJECT_ID": "1993-036LN", "EPOCH": "2025-12-23T02:41:34.938816", "MEAN_MOTION": 14.49338789, "ECCENTRICITY": 0.00464956, "INCLINATION": 74.011, "RA_OF_ASC_NODE": 9.3741, "ARG_OF_PERICENTER": 91.849, "MEAN_ANOMALY": 325.4318, "EPHEMERIS_TYPE": 0, "CLASSIFICATION_TYPE": "U", "NORAD_CAT_ID": 34141, "ELEMENT_SET_NO": 999, "REV_AT_EPOCH": 87844, "BSTAR": 0.0014544404, "MEAN_MOTION_DOT": 5.609e-05, "MEAN_MOTION_DDOT": 0}, "tle": {"line1": "1 34141U 93036LN  25357.11220994  .00005609  00000+0  14544-2 0  9993", "line2": "2 34141  74.0110   9.3741 0046495  91.8490 325.4318 14.49338789878444"}}, "geometry": {"type": "Point", "coordinates": [11.334088324144918, 11.585544782285828]}}, {"type": "Feature", "properties": {"norad_id": 34270, "name": "COSMOS 2251 DEB", "group": "cosmos-2251-debris", "lat": -61.40655250883556, "lon": 136.9287673208554, "alt_km": 716.552102899208, "timestamp": "2025-12-23T20:42:37.469883+00:00", "meta": {"OBJECT_NAME": "COSMOS 2251 DEB", "OBJECT_ID": "1993-036LQ", "EPOCH": "2025-12-23T04:50:48.158592", "MEAN_MOTION": 14.65244108, "ECCENTRICITY": 0.00479878, "INCLINATION": 74.0116, "RA_OF_ASC_NODE": 286.4652, "ARG_OF_PERICENTER": 76.0742, "MEAN_ANOMALY": 284.5757, "EPHEMERIS_TYPE": 0, "CLASSIFICATION_TYPE": "U", "NORAD_CAT_ID": 34270, "ELEMENT_SET_NO": 999, "REV_AT_EPOCH": 89249, "BSTAR": 0.00067446334, "MEAN_MOTION_DOT": 3.666e-05, "MEAN_MOTION_DDOT": 0}, "tle": {"line1": "1 34270U 93036LQ  25357.20194628  .00003666  00000+0  67446-3 0  9991", "line2": "2 34270  74.0116 286.4652 0047987  76.0742 284.5757 14.65244108892496"}}, "geometry": {"type": "Point", "coordinates": [136.9287673208554, -61.40655250883556]}}, {"type": "Feature", "properties": {"norad_id": 34271, "name": "COSMOS 2251 DEB", "group": "cosmos-2251-debris", "lat": 54.92043261788603, "lon": -158.2045182008441, "alt_km": 665.0704926960025, "timestamp": "2025-12-23T20:42:37.469893+00:00", "meta": {"OBJECT_NAME": "COSMOS 2251 DEB", "OBJECT_ID": "1993-036LR", "EPOCH": "2025-12-22T21:54:40.256352", "MEAN_MOTION": 14.70970032, "ECCENTRICITY": 0.00182682, "INCLINATION": 74.0193, "RA_OF_ASC_NODE": 179.5582, "ARG_OF_PERICENTER": 232.8492, "MEAN_ANOMALY": 197.0846, "EPHEMERIS_TYPE": 0, "CLASSIFICATION_TYPE": "U", "NORAD_CAT_ID": 34271, "ELEMENT_SET_NO": 999, "REV_AT_EPOCH": 88384, "BSTAR": 0.0021382594, "MEAN_MOTION_DOT": 0.00013138, "MEAN_MOTION_DDOT": 0}, "tle": {"line1": "1 34271U 93036LR  25356.91296593  .00013138  00000+0  21383-2 0  9997", "line2": "2 34271  74.0193 179.5582 0018268 232.8492 197.0846 14.70970032883844"}}, "geometry": {"type": "Point", "coordinates": [-158.2045182008441, 54.92043261788603]}}, {"type": "Feature", "properties": {"norad_id": 34273, "name": "COSMOS 2251 DEB", "group": "cosmos-2251-debris", "lat": 50.75312455326252, "lon": 86.67135501085988, "alt_km": 690.992053078824, "timestamp": "2025-12-23T20:42:37.469903+00:00", "meta": {"OBJECT_NAME": "COSMOS 2251 DEB", "OBJECT_ID": "1993-036LT", "EPOCH": "2025-12-23T04:08:17.943360", "MEAN_MOTION": 14.61312586, "ECCENTRICITY": 0.00135096, "INCLINATION": 74.0359, "RA_OF_ASC_NODE": 67.4794, "ARG_OF_PERICENTER": 193.2229, "MEAN_ANOMALY": 189.5426, "EPHEMERIS_TYPE": 0, "CLASSIFICATION_TYPE": "U", "NORAD_CAT_ID": 34273, "ELEMENT_SET_NO": 999, "REV_AT_EPOCH": 88774, "BSTAR": 0.00092743619, "MEAN_MOTION_DOT": 4.559e-05, "MEAN_MOTION_DDOT": 0}, "tle": {"line1": "1 34273U 93036LT  25357.17242990  .00004559  00000+0  92744-3 0  9997", "line2": "2 34273  74.0359  67.4794 0013509 193.2229 189.5426 14.61312586887748"}}, "geometry": {"type": "Point", "coordinates": [86.67135501085988, 50.75312455326252]}}, {"type": "Feature", "properties": {"norad_id": 34274, "name": "COSMOS 2251 DEB", "group": "cosmos-2251-debris", "lat": -71.61509444471976, "lon": -12.531717307421392, "alt_km": 682.4396128217868, "timestamp": "2025-12-23T20:42:37.469913+00:00", "meta": {"OBJECT_NAME": "COSMOS 2251 DEB", "OBJECT_ID": "1993-036LU", "EPOCH": "2025-12-23T04:56:50.077824", "MEAN_MOTION": 14.64893926, "ECCENTRICITY": 0.00214165, "INCLINATION": 74.0037, "RA_OF_ASC_NODE": 48.4009, "ARG_OF_PERICENTER": 197.6835, "MEAN_ANOMALY": 218.9725, "EPHEMERIS_TYPE": 0, "CLASSIFICATION_TYPE": "U", "NORAD_CAT_ID": 34274, "ELEMENT_SET_NO": 999, "REV_AT_EPOCH": 88829, "BSTAR": 0.0010451232, "MEAN_MOTION_DOT": 5.579e-05, "MEAN_MOTION_DDOT": 0}, "tle": {"line1": "1 34274U 93036LU  25357.20613516  .00005579  00000+0  10451-2 0  9995", "line2": "2 34274  74.0037  48.4009 0021416 197.6835 218.9725 14.64893926888292"}}, "geometry": {"type": "Point", "coordinates": [-12.531717307421392, -71.61509444471976]}}, {"type": "Feature", "properties": {"norad_id": 34276, "name": "COSMOS 2251 DEB", "group": "cosmos-2251-debris", "lat": -73.6626391267104, "lon": -13.60853155508769, "alt_km": 701.8682577463078, "timestamp": "2025-12-23T20:42:37.469923+00:00", "meta": {"OBJECT_NAME": "COSMOS 2251 DEB", "OBJECT_ID": "1993-036LW", "EPOCH": "2025-12-23T04:46:29.650656", "MEAN_MOTION": 14.57292007, "ECCENTRICITY": 0.00221967, "INCLINATION": 74.0236, "RA_OF_ASC_NODE": 65.435, "ARG_OF_PERICENTER": 211.2136, "MEAN_ANOMALY": 179.9991, "EPHEMERIS_TYPE": 0, "CLASSIFICATION_TYPE": "U", "NORAD_CAT_ID": 34276, "ELEMENT_SET_NO": 999, "REV_AT_EPOCH": 88745, "BSTAR": 0.00067870159, "MEAN_MOTION_DOT": 3.053e-05, "MEAN_MOTION_DDOT": 0}, "tle": {"line1": "1 34276U 93036LW  25357.19895429  .00003053  00000+0  67870-3 0  9993", "line2": "2 34276  74.0236  65.4350 0022196 211.2136 179.9991 14.57292007887459"}}, "geometry": {"type": "Point", "coordinates": [-13.60853155508769, -73.6626391267104]}}, {"type": "Feature", "properties": {"norad_id": 34297, "name": "COSMOS 2251 DEB", "group": "cosmos-2251-debris", "lat": -0.008579253838224027, "lon": 83.8106184746905, "alt_km": 783.2417636724722, "timestamp": "2025-12-23T20:42:37.469933+00:00", "meta": {"OBJECT_NAME": "COSMOS 2251 DEB", "OBJECT_ID": "1993-036MT", "EPOCH": "2025-12-23T05:35:32.433792", "MEAN_MOTION": 14.36637883, "ECCENTRICITY": 0.00176869, "INCLINATION": 74.0487, "RA_OF_ASC_NODE": 264.9644, "ARG_OF_PERICENTER": 331.7244, "MEAN_ANOMALY": 191.7029, "EPHEMERIS_TYPE": 0, "CLASSIFICATION_TYPE": "U", "NORAD_CAT_ID": 34297, "ELEMENT_SET_NO": 999, "REV_AT_EPOCH": 88215, "BSTAR": 0.00013024205, "MEAN_MOTION_DOT": 3.58e-06, "MEAN_MOTION_DDOT": 0}, "tle": {"line1": "1 34297U 93036MT  25357.23301428  .00000358  00000+0  13024-3 0  9999", "line2": "2 34297  74.0487 264.9644 0017686 331.7244 191.7029 14.36637883882156"}}, "geometry": {"type": "Point", "coordinates": [83.8106184746905, -0.008579253838224027]}}, {"type": "Feature", "properties": {"norad_id": 34301, "name": "COSMOS 2251 DEB", "group": "cosmos-2251-debris", "lat": -67.19810887266364, "lon": 7.60975218689545, "alt_km": 615.2954431402359, "timestamp": "2025-12-23T20:42:37.469951+00:00", "meta": {"OBJECT_NAME": "COSMOS 2251 DEB", "OBJECT_ID": "1993-036MX", "EPOCH": "2025-12-22T19:53:22.425792", "MEAN_MOTION": 14.85014101, "ECCENTRICITY": 0.00102276, "INCLINATION": 74.0055, "RA_OF_ASC_NODE": 146.643, "ARG_OF_PERICENTER": 209.688, "MEAN_ANOMALY": 277.0489, "EPHEMERIS_TYPE": 0, "CLASSIFICATION_TYPE": "U", "NORAD_CAT_ID": 34301, "ELEMENT_SET_NO": 999, "REV_AT_EPOCH": 88550, "BSTAR": 0.0032611142, "MEAN_MOTION_DOT": 0.00027935, "MEAN_MOTION_DDOT": 0}, "tle": {"line1": "1 34301U 93036MX  25356.82873178  .00027935  00000+0  32611-2 0  9997", "line2": "2 34301  74.0055 146.6430 0010227 209.6880 277.0489 14.85014101885501"}}, "geometry": {"type": "Point", "coordinates": [7.60975218689545, -67.19810887266364]}}, {"type": "Feature", "properties": {"norad_id": 34302, "name": "COSMOS 2251 DEB", "group": "cosmos-2251-debris", "lat": -35.094776062066934, "lon": 91.73279334149859, "alt_km": 710.3641914597902, "timestamp": "2025-12-23T20:42:37.469961+00:00", "meta": {"OBJECT_NAME": "COSMOS 2251 DEB", "OBJECT_ID": "1993-036MY", "EPOCH": "2025-12-23T02:49:12.158976", "MEAN_MOTION": 14.39368344, "ECCENTRICITY": 0.00793714, "INCLINATION": 74.1781, "RA_OF_ASC_NODE": 104.5899, "ARG_OF_PERICENTER": 316.9355, "MEAN_ANOMALY": 105.2859, "EPHEMERIS_TYPE": 0, "CLASSIFICATION_TYPE": "U", "NORAD_CAT_ID": 34302, "ELEMENT_SET_NO": 999, "REV_AT_EPOCH": 87870, "BSTAR": 0.00056774212, "MEAN_MOTION_DOT": 1.805e-05, "MEAN_MOTION_DDOT": 0}, "tle": {"line1": "1 34302U 93036MY  25357.11750184  .00001805  00000+0  56774-3 0  9997", "line2": "2 34302  74.1781 104.5899 0079371 316.9355 105.2859 14.39368344878702"}}, "geometry": {"type": "Point", "coordinates": [91.73279334149859, -35.094776062066934]}}, {"type": "Feature", "properties": {"norad_id": 34303, "name": "COSMOS 2251 DEB", "group": "cosmos-2251-debris", "lat": 30.98603213861996, "lon": -83.12579919607327, "alt_km": 613.966981324168, "timestamp": "2025-12-23T20:42:37.469972+00:00", "meta": {"OBJECT_NAME": "COSMOS 2251 DEB", "OBJECT_ID": "1993-036MZ", "EPOCH": "2025-12-23T04:44:10.945824", "MEAN_MOTION": 14.54584938, "ECCENTRICITY": 0.01355692, "INCLINATION": 74.0053, "RA_OF_ASC_NODE": 268.2168, "ARG_OF_PERICENTER": 43.9597, "MEAN_ANOMALY": 104.8589, "EPHEMERIS_TYPE": 0, "CLASSIFICATION_TYPE": "U", "NORAD_CAT_ID": 34303, "ELEMENT_SET_NO": 999, "REV_AT_EPOCH": 88114, "BSTAR": 0.0015621447, "MEAN_MOTION_DOT": 7.518e-05, "MEAN_MOTION_DDOT": 0}, "tle": {"line1": "1 34303U 93036MZ  25357.19734891  .00007518  00000+0  15621-2 0  9995", "line2": "2 34303  74.0053 268.2168 0135569  43.9597 104.8589 14.54584938881141"}}, "geometry": {"type": "Point", "coordinates": [-83.12579919607327, 30.98603213861996]}}]}